{"type":"FeatureCollection","features":[{"type":"Feature","properties":{"n":1,"dep":"TUMBES","puente":"Km 1176+050","ruta":"PE-1N","prog":"1176+050","long":6.4,"tipo":"Definitivo","estado":"Regular","interv":"Reparación de estribos y pilares","r2019":"SI"},"geometry":{"type":"Point","coordinates":[-80.98311,-4.06424]}},{"type":"Feature","properties":{"n":2,"dep":"TUMBES","puente":"Huacura II","ruta":"PE-1N","prog":"1222+900","long":19.5,"tipo":"Alcantarilla","estado":"Regular","interv":"Reparación de estribos y pilares","r2019":"SI"},"geometry":{"type":"Point","coordinates":[-80.787831,-3.752182]}},{"type":"Feature","properties":{"n":3,"dep":"TUMBES","puente":"Km 1234+700","ruta":"PE-1N","prog":"1234+700","long":6.2,"tipo":"Alcantarilla","estado":"Regular","interv":"Reparación de estribos y pilares","r2019":"SI"},"geometry":{"type":"Point","coordinates":[-80.706101,-3.697194]}},{"type":"Feature","properties":{"n":4,"dep":"TUMBES","puente":"Aeropuerto","ruta":"PE-1N","prog":"1275+800","long":40.5,"tipo":"Definitivo","estado":"Malo","interv":"Reparación de estribos y pilares; protección en sectores críticos adyacentes a la plataforma","r2019":"SI"},"geometry":{"type":"Point","coordinates":[-80.394982,-3.545133]}},{"type":"Feature","properties":{"n":5,"dep":"PIURA","puente":"Km 1077+450","ruta":"PE-1N","prog":"1077+450","long":10.8,"tipo":"Alcantarilla","estado":"Regular","interv":"Reparación de estribos y pilares; corrección de plataforma en puntos críticos","r2019":"SI"},"geometry":{"type":"Point","coordinates":[-81.073112,-4.701146]}},{"type":"Feature","properties":{"n":6,"dep":"PIURA","puente":"Km 1079+050","ruta":"PE-1N","prog":"1079+050","long":21.2,"tipo":"Definitivo","estado":"Regular","interv":"Reparación de estribos y pilares; corrección de plataforma en puntos críticos","r2019":"SI"},"geometry":{"type":"Point","coordinates":[-81.109366,-4.66612]}},{"type":"Feature","properties":{"n":7,"dep":"PIURA","puente":"Pariñas I","ruta":"PE-1N","prog":"1097+900","long":150.5,"tipo":"Definitivo","estado":"Regular","interv":"Reparación de estribos y pilares; corrección de plataforma en puntos críticos","r2019":"SI"},"geometry":{"type":"Point","coordinates":[-81.205666,-4.532516]}},{"type":"Feature","properties":{"n":8,"dep":"PIURA","puente":"Quebrada Honda","ruta":"PE-1N","prog":"1103+900","long":290.0,"tipo":"Definitivo","estado":"Regular","interv":"Reparación de estribos y pilares; corrección de plataforma en puntos críticos","r2019":"SI"},"geometry":{"type":"Point","coordinates":[-81.220784,-4.487739]}},{"type":"Feature","properties":{"n":9,"dep":"PIURA","puente":"Cabo Blanco","ruta":"PE-1N","prog":"1164+700","long":75.0,"tipo":"Definitivo","estado":"Regular","interv":"Reparación de estribos y pilares; protección contra socavación","r2019":"SI"},"geometry":{"type":"Point","coordinates":[-81.059235,-4.107422]}},{"type":"Feature","properties":{"n":10,"dep":"AMAZONAS","puente":"Pomacocha","ruta":"PE-08B","prog":"232+200","long":12.5,"tipo":"Artesanal","estado":"Regular","interv":"Reparación de estribos y pilares; protección contra socavación","r2019":"SI"},"geometry":{"type":"Point","coordinates":[-77.827754,-6.726305]}},{"type":"Feature","properties":{"n":11,"dep":"AMAZONAS","puente":"Timbuj","ruta":"PE-08B","prog":"266+400","long":11.8,"tipo":"Artesanal","estado":"Malo","interv":"Reparación de estribos y pilares; protección contra socavación","r2019":"SI"},"geometry":{"type":"Point","coordinates":[-77.827757,-6.543818]}},{"type":"Feature","properties":{"n":12,"dep":"AMAZONAS","puente":"Zuta","ruta":"PE-08B","prog":"275+300","long":11.3,"tipo":"Artesanal","estado":"Malo","interv":"Reparación de estribos y pilares; protección contra socavación","r2019":"SI"},"geometry":{"type":"Point","coordinates":[-77.860107,-6.480117]}},{"type":"Feature","properties":{"n":13,"dep":"AMAZONAS","puente":"Santa Rosa de Jaipe","ruta":"PE-5NG","prog":"119+600","long":20.7,"tipo":"Definitivo","estado":"Regular","interv":"Reparación de estribos y pilares; protección contra socavación","r2019":"NO (ruta posterior a 2019)"},"geometry":{"type":"Point","coordinates":[-78.348877,-6.150441]}},{"type":"Feature","properties":{"n":14,"dep":"CAJAMARCA","puente":"Santa Rosa","ruta":"PE-08B","prog":"101+750","long":6.0,"tipo":"Definitivo","estado":"Malo","interv":"Reparación de estribos y pilares; protección contra socavación","r2019":"SI"},"geometry":{"type":"Point","coordinates":[-78.135844,-6.872253]}},{"type":"Feature","properties":{"n":15,"dep":"LA LIBERTAD","puente":"Chagual","ruta":"PE-10C","prog":"103+050","long":86.5,"tipo":"Provisional","estado":"Regular","interv":"Reparación de estribos y pilares; protección contra socavación","r2019":"SI"},"geometry":{"type":"Point","coordinates":[-77.638926,-7.827742]}},{"type":"Feature","properties":{"n":16,"dep":"LA LIBERTAD","puente":"Km 110+650","ruta":"PE-10C","prog":"110+650","long":62.2,"tipo":"Provisional","estado":"Regular","interv":"Reparación de estribos y pilares; protección contra socavación","r2019":"SI"},"geometry":{"type":"Point","coordinates":[-77.626635,-7.885999]}},{"type":"Feature","properties":{"n":17,"dep":"ANCASH","puente":"Chichoragra","ruta":"PE-14A","prog":"178+850","long":7.4,"tipo":"Definitivo","estado":"Regular","interv":"Reparación de estribos y pilares; protección contra socavación","r2019":"SI"},"geometry":{"type":"Point","coordinates":[-76.941978,-9.13142]}},{"type":"Feature","properties":{"n":18,"dep":"ANCASH","puente":"Tambillos","ruta":"PE-14C","prog":"67+350","long":20.5,"tipo":"Definitivo","estado":"Malo","interv":"Reparación de estribos y pilares; protección contra socavación","r2019":"SI"},"geometry":{"type":"Point","coordinates":[-77.507915,-8.750972]}},{"type":"Feature","properties":{"n":19,"dep":"ANCASH","puente":"Batan","ruta":"PE-14D","prog":"3+400","long":15.4,"tipo":"Provisional","estado":"Regular","interv":"Reparación de estribos y pilares; protección contra socavación","r2019":"SI"},"geometry":{"type":"Point","coordinates":[-76.96942,-9.220508]}},{"type":"Feature","properties":{"n":20,"dep":"ANCASH","puente":"Km 62+634","ruta":"PE-16A","prog":"62+634","long":6.7,"tipo":"Definitivo","estado":"Regular","interv":"Reparación de estribos y pilares; protección contra socavación","r2019":"SI"},"geometry":{"type":"Point","coordinates":[-77.313126,-10.5724]}},{"type":"Feature","properties":{"n":21,"dep":"JUNIN","puente":"La Punta","ruta":"PE-3SC","prog":"5+847","long":7.6,"tipo":"Definitivo","estado":"Malo","interv":"Reparación de estribos y pilares; protección contra socavación","r2019":"SI"},"geometry":{"type":"Point","coordinates":[-75.177581,-12.121075]}},{"type":"Feature","properties":{"n":22,"dep":"LIMA","puente":"Km 58+810","ruta":"PE-16A","prog":"58+810","long":7.7,"tipo":"Definitivo","estado":"Regular","interv":"Reparación de estribos y pilares; protección contra socavación","r2019":"SI"},"geometry":{"type":"Point","coordinates":[-77.333976,-10.597]}},{"type":"Feature","properties":{"n":23,"dep":"LIMA","puente":"Palomar","ruta":"PE-22","prog":"37+840","long":21.0,"tipo":"Definitivo","estado":"Malo","interv":"Reparación de estribos y pilares; protección contra socavación","r2019":"SI"},"geometry":{"type":"Point","coordinates":[-76.667051,-11.921399]}},{"type":"Feature","properties":{"n":24,"dep":"LIMA","puente":"Cacachi","ruta":"PE-22A","prog":"101+253","long":17.6,"tipo":"Definitivo","estado":"Regular","interv":"Reparación de estribos y pilares; protección contra socavación","r2019":"SI"},"geometry":{"type":"Point","coordinates":[-76.210555,-12.14139]}},{"type":"Feature","properties":{"n":25,"dep":"LIMA","puente":"Rio Blanco","ruta":"PE-22A","prog":"182+374","long":12.0,"tipo":"Definitivo","estado":"Regular","interv":"Reparación de estribos y pilares; protección contra socavación","r2019":"SI"},"geometry":{"type":"Point","coordinates":[-76.256094,-11.738011]}},{"type":"Feature","properties":{"n":26,"dep":"HUANCAVELICA","puente":"Palca","ruta":"PE-26","prog":"77+880","long":22.0,"tipo":"Definitivo","estado":"Regular","interv":"Reparación de estribos y pilares; protección contra socavación","r2019":"SI"},"geometry":{"type":"Point","coordinates":[-75.611587,-13.228029]}},{"type":"Feature","properties":{"n":27,"dep":"AYACUCHO","puente":"Km 20+120","ruta":"PE-3SL","prog":"20+120","long":9.3,"tipo":"Definitivo","estado":"Regular","interv":"Reparación de estribos y pilares; protección contra socavación","r2019":"SI"},"geometry":{"type":"Point","coordinates":[-74.125,-13.198094]}}]}